ONEWEB-0624             
1 55165U 23004AB  24003.94305150 -.00000363  00000+0 -10453-2 0  9995
2 55165  87.9015 168.7265 0001237  85.6860 274.4410 13.12440664 50621
ONEWEB-0625             
1 55166U 23004AC  24004.02371942  .00000048  00000+0  89610-4 0  9999
2 55166  87.9185 183.8720 0001270 102.4298 257.6976 13.17648789 49692
ONEWEB-0626             
1 55167U 23004AD  24003.93827417  .00000085  00000+0  18515-3 0  9998
2 55167  87.9201 183.8894 0002040  82.1273 278.0090 13.17645673 49689
ONEWEB-0627             
1 55168U 23004AE  24004.45875785  .00000019  00000+0  16500-4 0  9998
2 55168  87.9183 183.7880 0001489  59.8056 300.3222 13.17646794 49758
ONEWEB-0628             
1 55169U 23004AF  24004.45445967  .00000234  00000+0  61441-3 0  9996
2 55169  87.9013 168.6185 0000953  76.5682 283.5552 13.12445617 50674
ONEWEB-0629             
1 55170U 23004AG  24004.45400618 -.00000232  00000+0 -63109-3 0  9995
2 55170  87.9198 183.7859 0000829  94.0035 266.1191 13.17646905 49756
ONEWEB-0631             
1 55171U 23004AH  24003.91003595 -.00000195  00000+0 -52822-3 0  9997
2 55171  87.9231 153.5339 0002053  77.0713 283.0648 13.18684581 51681
ONEWEB-0709             
1 55172U 23004AJ  24004.08943936  .00003365  00000+0  94564-2 0  9997
2 55172  87.8956 198.9978 0002461  78.2021 281.9383 13.11404337 48563
